ONEWEB-0588             
1 55153U 23004P   24272.06393796 -.00000177  00000+0 -48258-3 0  9994
2 55153  87.9050 100.3321 0001965  71.8472 288.2874 13.18683142 87045
ONEWEB-0598             
1 55154U 23004Q   24271.61932061 -.00000330  00000+0 -96573-3 0  9993
2 55154  87.8950 146.0906 0002380  78.5970 281.5425 13.11418266 83645
ONEWEB-0599             
1 55155U 23004R   24272.09592403 -.00001658  00000+0 -43058-2 0  9992
2 55155  87.9122 130.7773 0001885  85.4829 274.6517 13.17631105 84909
ONEWEB-0614             
1 55156U 23004S   24272.07201077 -.00000411  00000+0 -11968-2 0  9996
2 55156  87.8943 146.0068 0001420  63.6071 296.5203 13.11417180 83665
ONEWEB-0616             
1 55157U 23004T   24272.06213361  .00001815  00000+0  46422-2 0  9995
2 55157  87.9111 130.7864 0001881 118.3779 241.7542 13.17638838 85113
ONEWEB-0617             
1 55158U 23004U   24271.37347079 -.00000394  00000+0 -11480-2 0  9992
2 55158  87.8945 146.1360 0001762  62.8071 297.3237 13.11415910 83570
ONEWEB-0618             
1 55159U 23004V   24271.91355907  .00000477  00000+0  18813-3 0  9990
2 55159  86.9052  56.8647 0011580 319.3958  40.6369 14.27108795 89993
ONEWEB-0619             
1 55160U 23004W   24271.86641430 -.00000700  00000+0 -18362-2 0  9994
2 55160  87.9108 130.8025 0001211  82.7794 277.3475 13.17653132 84989
